{
  "type": "FeatureCollection",
  "features": [
    {
      "type": "Feature",
      "properties": {
        "shapeName": "Cardiff",
        "shapeISO": "",
        "shapeID": "12218062B31425119605902",
        "shapeGroup": "GBR",
        "shapeType": "ADM3"
      },
      "geometry": {
        "type": "Polygon",
        "coordinates": [
          [
            [
              -3.165733112999931,
              51.44617439400008
            ],
            [
              -3.164388922999933,
              51.445814778000056
            ],
            [
              -3.164141411999935,
              51.44576020000005
            ],
            [
              -3.123580715999935,
              51.486045810000064
            ],
            [
              -3.141757143999939,
              51.51227329300008
            ],
            [
              -3.125454125999966,
              51.48950556200003
            ],
            [
              -3.082720265999967,
              51.50190644200006
            ],
            [
              -3.090391372999932,
              51.50987460700003
            ],
            [
              -3.068910179999932,
              51.520266356000036
            ],
            [
              -3.118891323999947,
              51.54563797700007
            ],
            [
              -3.144483123999976,
              51.555337758000064
            ],
            [
              -3.152575732999935,
              51.55164118700003
            ],
            [
              -3.163734790999968,
              51.56050499500003
            ],
            [
              -3.237695861999953,
              51.55260266000005
            ],
            [
              -3.261572155999943,
              51.53778655500008
            ],
            [
              -3.27766722299998,
              51.55185812000008
            ],
            [
              -3.310363503999952,
              51.548932249000075
            ],
            [
              -3.324359294999965,
              51.53577531600007
            ],
            [
              -3.341592637999952,
              51.535139119000064
            ],
            [
              -3.335738505999927,
              51.50842732000007
            ],
            [
              -3.298385005999933,
              51.49991468400003
            ],
            [
              -3.271059094999941,
              51.465053373000046
            ],
            [
              -3.248053264999953,
              51.46455524500004
            ],
            [
              -3.21964451499997,
              51.474992986000075
            ],
            [
              -3.186664785999938,
              51.44790020000005
            ],
            [
              -3.165733112999931,
              51.44617439400008
            ]
          ]
        ]
      }
    }
  ]
}